COSMOS 2576             
1 59773U 24092A   26068.82603826  .00015211  00000+0  56283-3 0  9991
2 59773  97.4253 186.0053 0005946 159.7731 200.3745 15.27760963101271
STARLINK-36042          
1 66813U 25278Y   26068.43374346  .00018218  00000+0  67003-3 0  9992
2 66813  43.0002 115.4822 0002251 273.0427  87.0167 15.27573102 15179
